{
  "norad_id": 57851,
  "name": "STARLINK-30405",
  "history": [
    {
      "epoch": "2026-03-28T16:18:37.318176",
      "apogee_km": 475.8001546395117,
      "perigee_km": 474.62686103256965,
      "latitude_deg": 16.151016004442035,
      "longitude_deg": 30.341464640107006,
      "semi_major_axis_km": 6853.35050783604,
      "eccentricity": 8.56e-05,
      "inclination_deg": 53.161,
      "raan_deg": 195.989,
      "arg_perigee_deg": 108.2628,
      "mean_anomaly_deg": 251.8466,
      "mean_motion_rev_day": 15.30200523
    }
  ]
}